[{"OBJECT_NAME":"STARLINK-4762","OBJECT_ID":"2022-114BA","EPOCH":"2025-08-17T23:07:24.187296","MEAN_MOTION":15.08839496,"ECCENTRICITY":0.0001352,"INCLINATION":53.2171,"RA_OF_ASC_NODE":98.8941,"ARG_OF_PERICENTER":90.209,"MEAN_ANOMALY":269.9057,"EPHEMERIS_TYPE":0,"CLASSIFICATION_TYPE":"U","NORAD_CAT_ID":53866,"ELEMENT_SET_NO":999,"REV_AT_EPOCH":16263,"BSTAR":1.2798e-5,"MEAN_MOTION_DOT":-8.4e-7,"MEAN_MOTION_DDOT":0},{"OBJECT_NAME":"STARLINK-4793","OBJECT_ID":"2022-114BB","EPOCH":"2025-08-18T08:22:28.126560","MEAN_MOTION":15.08839298,"ECCENTRICITY":0.0001473,"INCLINATION":53.2174,"RA_OF_ASC_NODE":107.0142,"ARG_OF_PERICENTER":84.8759,"MEAN_ANOMALY":275.2401,"EPHEMERIS_TYPE":0,"CLASSIFICATION_TYPE":"U","NORAD_CAT_ID":53867,"ELEMENT_SET_NO":999,"REV_AT_EPOCH":16255,"BSTAR":0.00010757,"MEAN_MOTION_DOT":1.424e-5,"MEAN_MOTION_DDOT":0},{"OBJECT_NAME":"STARLINK-4789","OBJECT_ID":"2022-114BC","EPOCH":"2025-08-18T14:18:48.916800","MEAN_MOTION":15.08836006,"ECCENTRICITY":0.0001436,"INCLINATION":53.2177,"RA_OF_ASC_NODE":95.7552,"ARG_OF_PERICENTER":96.1945,"MEAN_ANOMALY":263.9211,"EPHEMERIS_TYPE":0,"CLASSIFICATION_TYPE":"U","NORAD_CAT_ID":53868,"ELEMENT_SET_NO":999,"REV_AT_EPOCH":16273,"BSTAR":3.6573e-5,"MEAN_MOTION_DOT":2.94e-6,"MEAN_MOTION_DDOT":0},{"OBJECT_NAME":"STARLINK-4810","OBJECT_ID":"2022-114BD","EPOCH":"2025-08-18T09:04:47.635104","MEAN_MOTION":15.08840696,"ECCENTRICITY":0.0001442,"INCLINATION":53.2171,"RA_OF_ASC_NODE":106.4926,"ARG_OF_PERICENTER":84.4645,"MEAN_ANOMALY":275.6512,"EPHEMERIS_TYPE":0,"CLASSIFICATION_TYPE":"U","NORAD_CAT_ID":53869,"ELEMENT_SET_NO":999,"REV_AT_EPOCH":16256,"BSTAR":7.0681e-5,"MEAN_MOTION_DOT":8.37e-6,"MEAN_MOTION_DDOT":0},{"OBJECT_NAME":"STARLINK-4732","OBJECT_ID":"2022-114BE","EPOCH":"2025-08-18T08:02:34.621152","MEAN_MOTION":15.08835764,"ECCENTRICITY":0.0001253,"INCLINATION":53.2167,"RA_OF_ASC_NODE":96.948,"ARG_OF_PERICENTER":89.1734,"MEAN_ANOMALY":270.9402,"EPHEMERIS_TYPE":0,"CLASSIFICATION_TYPE":"U","NORAD_CAT_ID":53870,"ELEMENT_SET_NO":999,"REV_AT_EPOCH":16269,"BSTAR":4.1056e-5,"MEAN_MOTION_DOT":3.66e-6,"MEAN_MOTION_DDOT":0},{"OBJECT_NAME":"STARLINK-4740","OBJECT_ID":"2022-114BF","EPOCH":"2025-08-17T21:47:48.231168","MEAN_MOTION":15.08842367,"ECCENTRICITY":0.0001405,"INCLINATION":53.217,"RA_OF_ASC_NODE":98.5546,"ARG_OF_PERICENTER":88.8471,"MEAN_ANOMALY":271.2682,"EPHEMERIS_TYPE":0,"CLASSIFICATION_TYPE":"U","NORAD_CAT_ID":53871,"ELEMENT_SET_NO":999,"REV_AT_EPOCH":16263,"BSTAR":6.4271e-5,"MEAN_MOTION_DOT":7.35e-6,"MEAN_MOTION_DDOT":0},{"OBJECT_NAME":"STARLINK-5028","OBJECT_ID":"2022-119A","EPOCH":"2025-08-18T05:10:23.556288","MEAN_MOTION":15.08842165,"ECCENTRICITY":0.0001424,"INCLINATION":53.2174,"RA_OF_ASC_NODE":157.782,"ARG_OF_PERICENTER":92.3669,"MEAN_ANOMALY":267.7487,"EPHEMERIS_TYPE":0,"CLASSIFICATION_TYPE":"U","NORAD_CAT_ID":53886,"ELEMENT_SET_NO":999,"REV_AT_EPOCH":16096,"BSTAR":3.9681e-5,"MEAN_MOTION_DOT":3.44e-6,"MEAN_MOTION_DDOT":0},{"OBJECT_NAME":"STARLINK-5029","OBJECT_ID":"2022-119B","EPOCH":"2025-08-18T12:51:24.377184","MEAN_MOTION":15.08841169,"ECCENTRICITY":0.0001357,"INCLINATION":53.2166,"RA_OF_ASC_NODE":156.2249,"ARG_OF_PERICENTER":91.0463,"MEAN_ANOMALY":269.0685,"EPHEMERIS_TYPE":0,"CLASSIFICATION_TYPE":"U","NORAD_CAT_ID":53887,"ELEMENT_SET_NO":999,"REV_AT_EPOCH":16101,"BSTAR":-1.3517e-5,"MEAN_MOTION_DOT":-5.03e-6,"MEAN_MOTION_DDOT":0},{"OBJECT_NAME":"STARLINK-5034","OBJECT_ID":"2022-119C","EPOCH":"2025-08-18T05:05:05.416800","MEAN_MOTION":15.08842154,"ECCENTRICITY":0.0001453,"INCLINATION":53.2178,"RA_OF_ASC_NODE":157.7595,"ARG_OF_PERICENTER":94.7248,"MEAN_ANOMALY":265.391,"EPHEMERIS_TYPE":0,"CLASSIFICATION_TYPE":"U","NORAD_CAT_ID":53888,"ELEMENT_SET_NO":999,"REV_AT_EPOCH":16096,"BSTAR":4.9477e-5,"MEAN_MOTION_DOT":5.0e-6,"MEAN_MOTION_DDOT":0},{"OBJECT_NAME":"STARLINK-5031","OBJECT_ID":"2022-119D","EPOCH":"2025-08-18T04:59:47.401728","MEAN_MOTION":15.08837098,"ECCENTRICITY":0.0001552,"INCLINATION":53.2178,"RA_OF_ASC_NODE":157.7355,"ARG_OF_PERICENTER":96.6928,"MEAN_ANOMALY":263.4241,"EPHEMERIS_TYPE":0,"CLASSIFICATION_TYPE":"U","NORAD_CAT_ID":53889,"ELEMENT_SET_NO":999,"REV_AT_EPOCH":16096,"BSTAR":6.2341e-5,"MEAN_MOTION_DOT":7.04e-6,"MEAN_MOTION_DDOT":0},{"OBJECT_NAME":"STARLINK-5050","OBJECT_ID":"2022-119E","EPOCH":"2025-08-18T10:24:57.553344","MEAN_MOTION":15.08841516,"ECCENTRICITY":0.0001522,"INCLINATION":53.2183,"RA_OF_ASC_NODE":121.3555,"ARG_OF_PERICENTER":104.9833,"MEAN_ANOMALY":255.1327,"EPHEMERIS_TYPE":0,"CLASSIFICATION_TYPE":"U","NORAD_CAT_ID":53890,"ELEMENT_SET_NO":999,"REV_AT_EPOCH":16149,"BSTAR":4.6289e-5,"MEAN_MOTION_DOT":4.49e-6,"MEAN_MOTION_DDOT":0},{"OBJECT_NAME":"STARLINK-5041","OBJECT_ID":"2022-119F","EPOCH":"2025-08-18T12:46:06.394080","MEAN_MOTION":15.08837134,"ECCENTRICITY":0.0001506,"INCLINATION":53.217,"RA_OF_ASC_NODE":156.2017,"ARG_OF_PERICENTER":98.7956,"MEAN_ANOMALY":261.3207,"EPHEMERIS_TYPE":0,"CLASSIFICATION_TYPE":"U","NORAD_CAT_ID":53891,"ELEMENT_SET_NO":999,"REV_AT_EPOCH":16101,"BSTAR":1.6931e-5,"MEAN_MOTION_DOT":-1.9e-7,"MEAN_MOTION_DDOT":0},{"OBJECT_NAME":"STARLINK-5046","OBJECT_ID":"2022-119G","EPOCH":"2025-08-18T12:19:34.699584","MEAN_MOTION":15.08836991,"ECCENTRICITY":0.0001399,"INCLINATION":53.2162,"RA_OF_ASC_NODE":156.0907,"ARG_OF_PERICENTER":88.086,"MEAN_ANOMALY":272.0293,"EPHEMERIS_TYPE":0,"CLASSIFICATION_TYPE":"U","NORAD_CAT_ID":53892,"ELEMENT_SET_NO":999,"REV_AT_EPOCH":16101,"BSTAR":2.1248e-5,"MEAN_MOTION_DOT":5.0e-7,"MEAN_MOTION_DDOT":0},{"OBJECT_NAME":"STARLINK-5052","OBJECT_ID":"2022-119H","EPOCH":"2025-08-18T12:36:52.210656","MEAN_MOTION":15.08841164,"ECCENTRICITY":0.0001426,"INCLINATION":53.2171,"RA_OF_ASC_NODE":156.1633,"ARG_OF_PERICENTER":86.9662,"MEAN_ANOMALY":273.1493,"EPHEMERIS_TYPE":0,"CLASSIFICATION_TYPE":"U","NORAD_CAT_ID":53893,"ELEMENT_SET_NO":999,"REV_AT_EPOCH":16101,"BSTAR":3.3836e-5,"MEAN_MOTION_DOT":2.51e-6,"MEAN_MOTION_DDOT":0},{"OBJECT_NAME":"STARLINK-5043","OBJECT_ID":"2022-119J","EPOCH":"2025-08-18T12:40:47.886528","MEAN_MOTION":15.08838138,"ECCENTRICITY":0.0001305,"INCLINATION":53.2169,"RA_OF_ASC_NODE":156.1824,"ARG_OF_PERICENTER":90.5557,"MEAN_ANOMALY":269.5585,"EPHEMERIS_TYPE":0,"CLASSIFICATION_TYPE":"U","NORAD_CAT_ID":53894,"ELEMENT_SET_NO":999,"REV_AT_EPOCH":16101,"BSTAR":4.3552e-5,"MEAN_MOTION_DOT":4.05e-6,"MEAN_MOTION_DDOT":0},{"OBJECT_NAME":"STARLINK-5032","OBJECT_ID":"2022-119K","EPOCH":"2025-08-18T02:52:33.820896","MEAN_MOTION":15.08837655,"ECCENTRICITY":0.0001474,"INCLINATION":53.2169,"RA_OF_ASC_NODE":157.8992,"ARG_OF_PERICENTER":103.165,"MEAN_ANOMALY":256.9507,"EPHEMERIS_TYPE":0,"CLASSIFICATION_TYPE":"U","NORAD_CAT_ID":53895,"ELEMENT_SET_NO":999,"REV_AT_EPOCH":16095,"BSTAR":0.00010174,"MEAN_MOTION_DOT":1.332e-5,"MEAN_MOTION_DDOT":0},{"OBJECT_NAME":"STARLINK-5037","OBJECT_ID":"2022-119L","EPOCH":"2025-08-18T12:14:16.033920","MEAN_MOTION":15.08836854,"ECCENTRICITY":0.0001168,"INCLINATION":53.2173,"RA_OF_ASC_NODE":156.0693,"ARG_OF_PERICENTER":82.8785,"MEAN_ANOMALY":277.234,"EPHEMERIS_TYPE":0,"CLASSIFICATION_TYPE":"U","NORAD_CAT_ID":53896,"ELEMENT_SET_NO":999,"REV_AT_EPOCH":16101,"BSTAR":2.1348e-5,"MEAN_MOTION_DOT":5.2e-7,"MEAN_MOTION_DDOT":0}]
