STARLINK-4762           
1 53866U 22114BA  25229.96347439 -.00000084  00000+0  12798-4 0  9996
2 53866  53.2171  98.8941 0001352  90.2090 269.9057 15.08839496162638
STARLINK-4793           
1 53867U 22114BB  25230.34893665  .00001424  00000+0  10757-3 0  9998
2 53867  53.2174 107.0142 0001473  84.8759 275.2401 15.08839298162557
STARLINK-4789           
1 53868U 22114BC  25230.59639950  .00000294  00000+0  36573-4 0  9990
2 53868  53.2177  95.7552 0001436  96.1945 263.9211 15.08836006162738
STARLINK-4810           
1 53869U 22114BD  25230.37832911  .00000837  00000+0  70681-4 0  9990
2 53869  53.2171 106.4926 0001442  84.4645 275.6512 15.08840696162567
STARLINK-4732           
1 53870U 22114BE  25230.33512293  .00000366  00000+0  41056-4 0  9997
2 53870  53.2167  96.9480 0001253  89.1734 270.9402 15.08835764162693
STARLINK-4740           
1 53871U 22114BF  25229.90819712  .00000735  00000+0  64271-4 0  9999
2 53871  53.2170  98.5546 0001405  88.8471 271.2682 15.08842367162637
STARLINK-5028           
1 53886U 22119A   25230.21555042  .00000344  00000+0  39681-4 0  9992
2 53886  53.2174 157.7820 0001424  92.3669 267.7487 15.08842165160963
STARLINK-5029           
1 53887U 22119B   25230.53569881 -.00000503  00000+0 -13517-4 0  9993
2 53887  53.2166 156.2249 0001357  91.0463 269.0685 15.08841169161012
STARLINK-5034           
1 53888U 22119C   25230.21186825  .00000500  00000+0  49477-4 0  9991
2 53888  53.2178 157.7595 0001453  94.7248 265.3910 15.08842154160962
STARLINK-5031           
1 53889U 22119D   25230.20818752  .00000704  00000+0  62341-4 0  9993
2 53889  53.2178 157.7355 0001552  96.6928 263.4241 15.08837098160960
STARLINK-5050           
1 53890U 22119E   25230.43399946  .00000449  00000+0  46289-4 0  9998
2 53890  53.2183 121.3555 0001522 104.9833 255.1327 15.08841516161494
STARLINK-5041           
1 53891U 22119F   25230.53201845 -.00000019  00000+0  16931-4 0  9995
2 53891  53.2170 156.2017 0001506  98.7956 261.3207 15.08837134161014
STARLINK-5046           
1 53892U 22119G   25230.51359606  .00000050  00000+0  21248-4 0  9994
2 53892  53.2162 156.0907 0001399  88.0860 272.0293 15.08836991161012
STARLINK-5052           
1 53893U 22119H   25230.52560429  .00000251  00000+0  33836-4 0  9992
2 53893  53.2171 156.1633 0001426  86.9662 273.1493 15.08841164161010
STARLINK-5043           
1 53894U 22119J   25230.52833202  .00000405  00000+0  43552-4 0  9992
2 53894  53.2169 156.1824 0001305  90.5557 269.5585 15.08838138161018
STARLINK-5032           
1 53895U 22119K   25230.11983589  .00001332  00000+0  10174-3 0  9995
2 53895  53.2169 157.8992 0001474 103.1650 256.9507 15.08837655160954
STARLINK-5037           
1 53896U 22119L   25230.50990780  .00000052  00000+0  21348-4 0  9994
2 53896  53.2173 156.0693 0001168  82.8785 277.2340 15.08836854161010
